{
"type": "FeatureCollection",
"name": "fire-stations",
"crs": { "type": "name", "properties": { "name": "urn:ogc:def:crs:OGC:1.3:CRS84" } },
"features": [
{ "type": "Feature", "properties": { "STATION_NU": "FS-37", "FULL_ADDRE": "555 W. Jefferson Ave", "ZIPCODE": 80110.0, "DISTRICT": "7", "EMERGENCY_": "303-762-2484", "HOUSE_PHON": "303-762-2477", "ADDRESS_ID": 0.0 }, "geometry": { "type": "Point", "coordinates": [ -104.994374056501272, 39.650719573178435 ] } },
{ "type": "Feature", "properties": { "STATION_NU": "FS-38", "FULL_ADDRE": "4830 S. Acoma Street", "ZIPCODE": 80110.0, "DISTRICT": "7", "EMERGENCY_": "303-789-3827", "HOUSE_PHON": "303-792-2482", "ADDRESS_ID": 0.0 }, "geometry": { "type": "Point", "coordinates": [ -104.989050471147664, 39.629128194684256 ] } },
{ "type": "Feature", "properties": { "STATION_NU": "FS-31", "FULL_ADDRE": "8525 N Newcastle St", "ZIPCODE": 80249.0, "DISTRICT": "8", "EMERGENCY_": "303-342-4241", "HOUSE_PHON": "303-342-4241", "ADDRESS_ID": 0.0 }, "geometry": { "type": "Point", "coordinates": [ -104.682468559587278, 39.851371121635282 ] } },
{ "type": "Feature", "properties": { "STATION_NU": "ARFF-3", "FULL_ADDRE": "8525 N Newcastle St", "ZIPCODE": 80249.0, "DISTRICT": "8", "EMERGENCY_": "303-342-4271", "HOUSE_PHON": "303-342-4271", "ADDRESS_ID": 0.0 }, "geometry": { "type": "Point", "coordinates": [ -104.64607061826473, 39.85749533689949 ] } },
{ "type": "Feature", "properties": { "STATION_NU": "FS-32", "FULL_ADDRE": "8525 N Newcastle St", "ZIPCODE": 80249.0, "DISTRICT": "8", "EMERGENCY_": "303-342-4265", "HOUSE_PHON": "303-342-4265", "ADDRESS_ID": 0.0 }, "geometry": { "type": "Point", "coordinates": [ -104.668728506636114, 39.881960220840142 ] } },
{ "type": "Feature", "properties": { "STATION_NU": "FS-27", "FULL_ADDRE": "12927 E Albrook Drive", "ZIPCODE": 80239.0, "DISTRICT": "5", "EMERGENCY_": "303-373-8527", "HOUSE_PHON": "303-373-8715", "ADDRESS_ID": 0.0 }, "geometry": { "type": "Point", "coordinates": [ -104.840940463702509, 39.780586673302594 ] } },
{ "type": "Feature", "properties": { "STATION_NU": "FS-29", "FULL_ADDRE": "4800 N Himalaya St", "ZIPCODE": 80239.0, "DISTRICT": "5", "EMERGENCY_": "303-373-8529", "HOUSE_PHON": "303-373-8714", "ADDRESS_ID": 0.0 }, "geometry": { "type": "Point", "coordinates": [ -104.75470911421354, 39.783148490615929 ] } },
{ "type": "Feature", "properties": { "STATION_NU": "FS-8", "FULL_ADDRE": "1616 Park Ave W", "ZIPCODE": 80218.0, "DISTRICT": "4", "EMERGENCY_": "303-839-2108", "HOUSE_PHON": "303-839-2110", "ADDRESS_ID": 0.0 }, "geometry": { "type": "Point", "coordinates": [ -104.971713073118622, 39.742073414289962 ] } },
{ "type": "Feature", "properties": { "STATION_NU": "FS-10", "FULL_ADDRE": "3200 N Steele St", "ZIPCODE": 80205.0, "DISTRICT": "4", "EMERGENCY_": "303-331-6110", "HOUSE_PHON": "303-331-6111", "ADDRESS_ID": 314517.0 }, "geometry": { "type": "Point", "coordinates": [ -104.949554087560898, 39.762372575086317 ] } },
{ "type": "Feature", "properties": { "STATION_NU": "FS-15", "FULL_ADDRE": "1375 N Harrison St", "ZIPCODE": 80206.0, "DISTRICT": "4", "EMERGENCY_": "303-331-4015", "HOUSE_PHON": "303-370-8107", "ADDRESS_ID": 61646.0 }, "geometry": { "type": "Point", "coordinates": [ -104.942181430758069, 39.737739947535886 ] } },
{ "type": "Feature", "properties": { "STATION_NU": "FS-14", "FULL_ADDRE": "1426 N Oneida St", "ZIPCODE": 80220.0, "DISTRICT": "5", "EMERGENCY_": "303-331-4014", "HOUSE_PHON": "303-370-8106", "ADDRESS_ID": 126180.0 }, "geometry": { "type": "Point", "coordinates": [ -104.907814010817333, 39.739212655889844 ] } },
{ "type": "Feature", "properties": { "STATION_NU": "FS-19", "FULL_ADDRE": "300 S Ivy St", "ZIPCODE": 80222.0, "DISTRICT": "4", "EMERGENCY_": "303-331-4119", "HOUSE_PHON": "303-370-8104", "ADDRESS_ID": 135391.0 }, "geometry": { "type": "Point", "coordinates": [ -104.920783670967751, 39.71087199285904 ] } },
{ "type": "Feature", "properties": { "STATION_NU": "FS-12", "FULL_ADDRE": "2575 N Federal Blvd", "ZIPCODE": 80211.0, "DISTRICT": "6", "EMERGENCY_": "303-964-1112", "HOUSE_PHON": "303-458-4866", "ADDRESS_ID": 52612.0 }, "geometry": { "type": "Point", "coordinates": [ -105.025566052897943, 39.754572761730572 ] } },
{ "type": "Feature", "properties": { "STATION_NU": "FS-17", "FULL_ADDRE": "4500 N Tennyson St", "ZIPCODE": 80212.0, "DISTRICT": "6", "EMERGENCY_": "303-964-1117", "HOUSE_PHON": "303-458-4867", "ADDRESS_ID": 27402.0 }, "geometry": { "type": "Point", "coordinates": [ -105.04364944963902, 39.778575818992294 ] } },
{ "type": "Feature", "properties": { "STATION_NU": "FS-7", "FULL_ADDRE": "2195 W 38 Ave", "ZIPCODE": 80211.0, "DISTRICT": "6", "EMERGENCY_": "303-964-1007", "HOUSE_PHON": "303-458-4864", "ADDRESS_ID": 0.0 }, "geometry": { "type": "Point", "coordinates": [ -105.013180937872562, 39.769529731105763 ] } },
{ "type": "Feature", "properties": { "STATION_NU": "FS-9", "FULL_ADDRE": "4400 Brighton Blvd", "ZIPCODE": 80216.0, "DISTRICT": "6", "EMERGENCY_": "303-295-4209", "HOUSE_PHON": "303-295-4458", "ADDRESS_ID": 0.0 }, "geometry": { "type": "Point", "coordinates": [ -104.967659796383145, 39.778529913825366 ] } },
{ "type": "Feature", "properties": { "STATION_NU": "FS-6", "FULL_ADDRE": "1300 Blake St", "ZIPCODE": 80204.0, "DISTRICT": "2", "EMERGENCY_": "303-572-4606", "HOUSE_PHON": "303-572-4638", "ADDRESS_ID": 54194.0 }, "geometry": { "type": "Point", "coordinates": [ -105.002474398949573, 39.748277945846155 ] } },
{ "type": "Feature", "properties": { "STATION_NU": "FS-1", "FULL_ADDRE": "745 W Colfax Ave", "ZIPCODE": 80204.0, "DISTRICT": "2", "EMERGENCY_": "720-913-3501", "HOUSE_PHON": "720-913-3410", "ADDRESS_ID": 54245.0 }, "geometry": { "type": "Point", "coordinates": [ -104.997533279986442, 39.740394525186446 ] } },
{ "type": "Feature", "properties": { "STATION_NU": "FS-3", "FULL_ADDRE": "2500 N Washington St", "ZIPCODE": 80205.0, "DISTRICT": "2", "EMERGENCY_": "303-839-2103", "HOUSE_PHON": "303-839-2109", "ADDRESS_ID": 56611.0 }, "geometry": { "type": "Point", "coordinates": [ -104.97778429619018, 39.753399665465849 ] } },
{ "type": "Feature", "properties": { "STATION_NU": "FS-13", "FULL_ADDRE": "3673 S Yosemite St", "ZIPCODE": 80237.0, "DISTRICT": "3", "EMERGENCY_": "303-771-2013", "HOUSE_PHON": "303-850-7613", "ADDRESS_ID": 0.0 }, "geometry": { "type": "Point", "coordinates": [ -104.885409134365716, 39.64970565949244 ] } },
{ "type": "Feature", "properties": { "STATION_NU": "FS-22", "FULL_ADDRE": "3530 S Monaco Pkwy", "ZIPCODE": 80237.0, "DISTRICT": "3", "EMERGENCY_": "303-692-5622", "HOUSE_PHON": "303-692-5613", "ADDRESS_ID": 0.0 }, "geometry": { "type": "Point", "coordinates": [ -104.912568250101117, 39.652184982505844 ] } },
{ "type": "Feature", "properties": { "STATION_NU": "FS-24", "FULL_ADDRE": "2695 S Colorado Blvd", "ZIPCODE": 80222.0, "DISTRICT": "3", "EMERGENCY_": "303-692-5624", "HOUSE_PHON": "303-692-5616", "ADDRESS_ID": 111499.0 }, "geometry": { "type": "Point", "coordinates": [ -104.941095804811312, 39.667818892342041 ] } },
{ "type": "Feature", "properties": { "STATION_NU": "FS-16", "FULL_ADDRE": "1601 S Ogden St", "ZIPCODE": 80210.0, "DISTRICT": "3", "EMERGENCY_": "303-698-3316", "HOUSE_PHON": "303-698-4926", "ADDRESS_ID": 0.0 }, "geometry": { "type": "Point", "coordinates": [ -104.976053102896515, 39.687354733363406 ] } },
{ "type": "Feature", "properties": { "STATION_NU": "FS-21", "FULL_ADDRE": "1500 E Virginia Ave", "ZIPCODE": 80209.0, "DISTRICT": "3", "EMERGENCY_": "303-698-4921", "HOUSE_PHON": "303-698-4927", "ADDRESS_ID": 0.0 }, "geometry": { "type": "Point", "coordinates": [ -104.969198420976738, 39.707254273707008 ] } },
{ "type": "Feature", "properties": { "STATION_NU": "FS-25", "FULL_ADDRE": "2504 S Raleigh St", "ZIPCODE": 80219.0, "DISTRICT": "7", "EMERGENCY_": "303-937-4625", "HOUSE_PHON": "303-937-4455", "ADDRESS_ID": 120066.0 }, "geometry": { "type": "Point", "coordinates": [ -105.041329110203606, 39.6725004393615 ] } },
{ "type": "Feature", "properties": { "STATION_NU": "FS-28", "FULL_ADDRE": "4306 S Wolff St", "ZIPCODE": 80236.0, "DISTRICT": "7", "EMERGENCY_": "303-730-0028", "HOUSE_PHON": "303-730-3290", "ADDRESS_ID": 153293.0 }, "geometry": { "type": "Point", "coordinates": [ -105.048847288535455, 39.638344217188603 ] } },
{ "type": "Feature", "properties": { "STATION_NU": "FS-30", "FULL_ADDRE": "4898 S Dudley St", "ZIPCODE": 80236.0, "DISTRICT": "7", "EMERGENCY_": "303-933-1630", "HOUSE_PHON": "303-932-2697", "ADDRESS_ID": 189590.0 }, "geometry": { "type": "Point", "coordinates": [ -105.094287642731217, 39.627455736604134 ] } },
{ "type": "Feature", "properties": { "STATION_NU": "FS-23", "FULL_ADDRE": "850 S Federal Blvd", "ZIPCODE": 80219.0, "DISTRICT": "7", "EMERGENCY_": "303-937-4623", "HOUSE_PHON": "303-937-4451", "ADDRESS_ID": 181711.0 }, "geometry": { "type": "Point", "coordinates": [ -105.024720611824364, 39.701156967540612 ] } },
{ "type": "Feature", "properties": { "STATION_NU": "FS-11", "FULL_ADDRE": "40 W 2nd Ave", "ZIPCODE": 80223.0, "DISTRICT": "7", "EMERGENCY_": "303-698-4911", "HOUSE_PHON": "303-698-4925", "ADDRESS_ID": 79842.0 }, "geometry": { "type": "Point", "coordinates": [ -104.988510662185263, 39.719090045735243 ] } },
{ "type": "Feature", "properties": { "STATION_NU": "FS-20", "FULL_ADDRE": "501 N Knox Ct", "ZIPCODE": 80204.0, "DISTRICT": "6", "EMERGENCY_": "303-937-4620", "HOUSE_PHON": "303-937-4609", "ADDRESS_ID": 75835.0 }, "geometry": { "type": "Point", "coordinates": [ -105.032888368517774, 39.724811856536576 ] } },
{ "type": "Feature", "properties": { "STATION_NU": "FS-4", "FULL_ADDRE": "1890 Lawrence St", "ZIPCODE": 80202.0, "DISTRICT": "2", "EMERGENCY_": "303-295-4204", "HOUSE_PHON": "303-295-4409", "ADDRESS_ID": 55110.0 }, "geometry": { "type": "Point", "coordinates": [ -104.992889357103707, 39.750941798530448 ] } },
{ "type": "Feature", "properties": { "STATION_NU": "FS-2", "FULL_ADDRE": "5300 Memphis St", "ZIPCODE": 80239.0, "DISTRICT": "5", "EMERGENCY_": "303-576-2891", "HOUSE_PHON": "303-576-2891", "ADDRESS_ID": 0.0 }, "geometry": { "type": "Point", "coordinates": [ -104.795383362082362, 39.791431543728493 ] } },
{ "type": "Feature", "properties": { "STATION_NU": "FS-5", "FULL_ADDRE": "999 S Clermont", "ZIPCODE": 80246.0, "DISTRICT": "4", "EMERGENCY_": "720-865-2210", "HOUSE_PHON": "720-865-2210", "ADDRESS_ID": 0.0 }, "geometry": { "type": "Point", "coordinates": [ -104.935508660499579, 39.69866448947937 ] } },
{ "type": "Feature", "properties": { "STATION_NU": "ARFF-4", "FULL_ADDRE": "8525 N Newcastle St", "ZIPCODE": 80249.0, "DISTRICT": "8", "EMERGENCY_": "303-342-4340", "HOUSE_PHON": "303-342-4340", "ADDRESS_ID": 0.0 }, "geometry": { "type": "Point", "coordinates": [ -104.69045680562806, 39.876211926942574 ] } },
{ "type": "Feature", "properties": { "STATION_NU": "FS-26", "FULL_ADDRE": "7934 E Martin Luther King Blvd", "ZIPCODE": 80207.0, "DISTRICT": "5", "EMERGENCY_": "303-331-4126", "HOUSE_PHON": "303-370-8105", "ADDRESS_ID": 0.0 }, "geometry": { "type": "Point", "coordinates": [ -104.896140609379358, 39.759848011908446 ] } },
{ "type": "Feature", "properties": { "STATION_NU": "FS-36", "FULL_ADDRE": "4101 S Federal Blvd", "ZIPCODE": 80110.0, "DISTRICT": "7", "EMERGENCY_": "303-438-3333", "HOUSE_PHON": "303-762-2222", "ADDRESS_ID": 0.0 }, "geometry": { "type": "Point", "coordinates": [ -105.025531161771084, 39.641949395295001 ] } },
{ "type": "Feature", "properties": { "STATION_NU": "FS-18", "FULL_ADDRE": "8701 E Alameda Ave", "ZIPCODE": 80230.0, "DISTRICT": "4", "EMERGENCY_": "720-913-2400", "HOUSE_PHON": "720-865-6818", "ADDRESS_ID": 386969.0 }, "geometry": { "type": "Point", "coordinates": [ -104.8854537975281, 39.707792314663038 ] } },
{ "type": "Feature", "properties": { "STATION_NU": "FS-35", "FULL_ADDRE": "25365 E 75th Ave", "ZIPCODE": 80249.0, "DISTRICT": "8", "EMERGENCY_": null, "HOUSE_PHON": null, "ADDRESS_ID": 469500.0 }, "geometry": { "type": "Point", "coordinates": [ -104.690833016995782, 39.831539756539541 ] } }
]
}
